{
  "type": "FeatureCollection",
  "features": [
    {
      "type": "Feature",
      "properties": {
        "norad_id": 33886,
        "name": "IRIDIUM 33 DEB",
        "group": "iridium-33-debris",
        "lat": 78.47851977150081,
        "lon": -133.02287359445788,
        "alt_km": 769.1425430044756,
        "timestamp": "2025-12-17T21:39:46.074836+00:00",
        "meta_object_name": "IRIDIUM 33 DEB",
        "meta_object_id": "1997-051BF",
        "meta_epoch": "2025-12-17T15:02:25.501920",
        "meta_mean_motion": 14.36057797,
        "meta_eccentricity": 0.00126871,
        "meta_inclination": 86.3828,
        "meta_ra_of_asc_node": 65.1719,
        "meta_arg_of_pericenter": 223.9807,
        "meta_mean_anomaly": 251.452,
        "meta_ephemeris_type": 0,
        "meta_classification_type": "U",
        "meta_norad_cat_id": 33886,
        "meta_element_set_no": 999,
        "meta_rev_at_epoch": 88122,
        "meta_bstar": 0.00016228391,
        "meta_mean_motion_dot": 4.92e-06,
        "meta_mean_motion_ddot": 0,
        "tle_line1": "1 33886U 97051BF  25351.62668405  .00000492  00000+0  16228-3 0  9999",
        "tle_line2": "2 33886  86.3828  65.1719 0012687 223.9807 251.4520 14.36057797881228"
      },
      "geometry": {
        "type": "Point",
        "coordinates": [
          -133.02287359445788,
          78.47851977150081
        ]
      }
    },
    {
      "type": "Feature",
      "properties": {
        "norad_id": 33887,
        "name": "IRIDIUM 33 DEB",
        "group": "iridium-33-debris",
        "lat": 58.71091133358333,
        "lon": 7.272376704487041,
        "alt_km": 765.0185497129805,
        "timestamp": "2025-12-17T21:39:46.074846+00:00",
        "meta_object_name": "IRIDIUM 33 DEB",
        "meta_object_id": "1997-051BG",
        "meta_epoch": "2025-12-17T12:04:10.318080",
        "meta_mean_motion": 14.37225313,
        "meta_eccentricity": 0.00049044,
        "meta_inclination": 86.3042,
        "meta_ra_of_asc_node": 1.3395,
        "meta_arg_of_pericenter": 206.8502,
        "meta_mean_anomaly": 305.3018,
        "meta_ephemeris_type": 0,
        "meta_classification_type": "U",
        "meta_norad_cat_id": 33887,
        "meta_element_set_no": 999,
        "meta_rev_at_epoch": 88233,
        "meta_bstar": 0.00012790558,
        "meta_mean_motion_dot": 4e-06,
        "meta_mean_motion_ddot": 0,
        "tle_line1": "1 33887U 97051BG  25351.50289720  .00000400  00000+0  12791-3 0  9996",
        "tle_line2": "2 33887  86.3042   1.3395 0004904 206.8502 305.3018 14.37225313882330"
      },
      "geometry": {
        "type": "Point",
        "coordinates": [
          7.272376704487041,
          58.71091133358333
        ]
      }
    },
    {
      "type": "Feature",
      "properties": {
        "norad_id": 33953,
        "name": "IRIDIUM 33 DEB",
        "group": "iridium-33-debris",
        "lat": -70.73272088646195,
        "lon": -118.04075678417425,
        "alt_km": 727.9232976094454,
        "timestamp": "2025-12-17T21:39:46.074855+00:00",
        "meta_object_name": "IRIDIUM 33 DEB",
        "meta_object_id": "1997-051BN",
        "meta_epoch": "2025-12-17T04:08:26.339712",
        "meta_mean_motion": 14.55368101,
        "meta_eccentricity": 0.00181835,
        "meta_inclination": 86.3848,
        "meta_ra_of_asc_node": 51.8558,
        "meta_arg_of_pericenter": 89.4341,
        "meta_mean_anomaly": 298.8096,
        "meta_ephemeris_type": 0,
        "meta_classification_type": "U",
        "meta_norad_cat_id": 33953,
        "meta_element_set_no": 999,
        "meta_rev_at_epoch": 88368,
        "meta_bstar": 0.00084794262,
        "meta_mean_motion_dot": 3.708e-05,
        "meta_mean_motion_ddot": 0,
        "tle_line1": "1 33953U 97051BN  25351.17252708  .00003708  00000+0  84794-3 0  9995",
        "tle_line2": "2 33953  86.3848  51.8558 0018183  89.4341 298.8096 14.55368101883683"
      },
      "geometry": {
        "type": "Point",
        "coordinates": [
          -118.04075678417425,
          -70.73272088646195
        ]
      }
    },
    {
      "type": "Feature",
      "properties": {
        "norad_id": 33960,
        "name": "IRIDIUM 33 DEB",
        "group": "iridium-33-debris",
        "lat": -71.31219530959409,
        "lon": 118.24887307798956,
        "alt_km": 624.5027361045568,
        "timestamp": "2025-12-17T21:39:46.074865+00:00",
        "meta_object_name": "IRIDIUM 33 DEB",
        "meta_object_id": "1997-051BV",
        "meta_epoch": "2025-12-17T08:08:09.314016",
        "meta_mean_motion": 14.85425899,
        "meta_eccentricity": 0.00074619,
        "meta_inclination": 86.2537,
        "meta_ra_of_asc_node": 287.345,
        "meta_arg_of_pericenter": 54.6753,
        "meta_mean_anomaly": 64.9826,
        "meta_ephemeris_type": 0,
        "meta_classification_type": "U",
        "meta_norad_cat_id": 33960,
        "meta_element_set_no": 999,
        "meta_rev_at_epoch": 88935,
        "meta_bstar": 0.0023413728,
        "meta_mean_motion_dot": 0.00020242,
        "meta_mean_motion_ddot": 0,
        "tle_line1": "1 33960U 97051BV  25351.33899669  .00020242  00000+0  23414-2 0  9997",
        "tle_line2": "2 33960  86.2537 287.3450 0007461  54.6753  64.9826 14.85425899889354"
      },
      "geometry": {
        "type": "Point",
        "coordinates": [
          118.24887307798956,
          -71.31219530959409
        ]
      }
    },
    {
      "type": "Feature",
      "properties": {
        "norad_id": 33966,
        "name": "IRIDIUM 33 DEB",
        "group": "iridium-33-debris",
        "lat": -86.3661042866378,
        "lon": -39.612702153276445,
        "alt_km": 735.2465945240447,
        "timestamp": "2025-12-17T21:39:46.074874+00:00",
        "meta_object_name": "IRIDIUM 33 DEB",
        "meta_object_id": "1997-051CB",
        "meta_epoch": "2025-12-17T14:22:30.796320",
        "meta_mean_motion": 14.49613596,
        "meta_eccentricity": 0.00079959,
        "meta_inclination": 86.3923,
        "meta_ra_of_asc_node": 43.9423,
        "meta_arg_of_pericenter": 172.4962,
        "meta_mean_anomaly": 314.2197,
        "meta_ephemeris_type": 0,
        "meta_classification_type": "U",
        "meta_norad_cat_id": 33966,
        "meta_element_set_no": 999,
        "meta_rev_at_epoch": 88512,
        "meta_bstar": 0.0004008794,
        "meta_mean_motion_dot": 1.56e-05,
        "meta_mean_motion_ddot": 0,
        "tle_line1": "1 33966U 97051CB  25351.59896755  .00001560  00000+0  40088-3 0  9993",
        "tle_line2": "2 33966  86.3923  43.9423 0007995 172.4962 314.2197 14.49613596885125"
      },
      "geometry": {
        "type": "Point",
        "coordinates": [
          -39.612702153276445,
          -86.3661042866378
        ]
      }
    },
    {
      "type": "Feature",
      "properties": {
        "norad_id": 34071,
        "name": "IRIDIUM 33 DEB",
        "group": "iridium-33-debris",
        "lat": -25.819545935636803,
        "lon": 13.812542344525752,
        "alt_km": 736.5481222765347,
        "timestamp": "2025-12-17T21:39:46.074884+00:00",
        "meta_object_name": "IRIDIUM 33 DEB",
        "meta_object_id": "1997-051CE",
        "meta_epoch": "2025-12-17T13:29:52.397664",
        "meta_mean_motion": 14.49486285,
        "meta_eccentricity": 0.00099928,
        "meta_inclination": 86.3453,
        "meta_ra_of_asc_node": 15.7325,
        "meta_arg_of_pericenter": 94.7771,
        "meta_mean_anomaly": 265.4575,
        "meta_ephemeris_type": 0,
        "meta_classification_type": "U",
        "meta_norad_cat_id": 34071,
        "meta_element_set_no": 999,
        "meta_rev_at_epoch": 88404,
        "meta_bstar": 0.00046266915,
        "meta_mean_motion_dot": 1.793e-05,
        "meta_mean_motion_ddot": 0,
        "tle_line1": "1 34071U 97051CE  25351.56241201  .00001793  00000+0  46267-3 0  9991",
        "tle_line2": "2 34071  86.3453  15.7325 0009992  94.7771 265.4575 14.49486285884042"
      },
      "geometry": {
        "type": "Point",
        "coordinates": [
          13.812542344525752,
          -25.819545935636803
        ]
      }
    },
    {
      "type": "Feature",
      "properties": {
        "norad_id": 34077,
        "name": "IRIDIUM 33 DEB",
        "group": "iridium-33-debris",
        "lat": 77.0072624837847,
        "lon": -146.66440793587972,
        "alt_km": 668.9908175499031,
        "timestamp": "2025-12-17T21:39:46.074893+00:00",
        "meta_object_name": "IRIDIUM 33 DEB",
        "meta_object_id": "1997-051CL",
        "meta_epoch": "2025-12-17T15:21:03.084192",
        "meta_mean_motion": 14.64888728,
        "meta_eccentricity": 0.00096586,
        "meta_inclination": 86.3859,
        "meta_ra_of_asc_node": 49.3493,
        "meta_arg_of_pericenter": 24.1381,
        "meta_mean_anomaly": 132.1739,
        "meta_ephemeris_type": 0,
        "meta_classification_type": "U",
        "meta_norad_cat_id": 34077,
        "meta_element_set_no": 999,
        "meta_rev_at_epoch": 88404,
        "meta_bstar": 0.0007469396,
        "meta_mean_motion_dot": 4.015e-05,
        "meta_mean_motion_ddot": 0,
        "tle_line1": "1 34077U 97051CL  25351.63961903  .00004015  00000+0  74694-3 0  9998",
        "tle_line2": "2 34077  86.3859  49.3493 0009658  24.1381 132.1739 14.64888728884047"
      },
      "geometry": {
        "type": "Point",
        "coordinates": [
          -146.66440793587972,
          77.0072624837847
        ]
      }
    }
  ]
}